{
  "type": "FeatureCollection",
  "features": [
    {
      "type": "Feature",
      "properties": {
        "norad_id": 39617,
        "name": "ASTRA 5B (EGNOS/PRN 123)",
        "group": "gnss",
        "lat": -0.050558720663180776,
        "lon": -143.89542197655376,
        "alt_km": 35774.48975396158,
        "timestamp": "2025-12-18T07:01:54.831160+00:00",
        "meta_object_name": "ASTRA 5B (EGNOS/PRN 123)",
        "meta_object_id": "2014-011B",
        "meta_epoch": "2025-12-17T18:34:29.888256",
        "meta_mean_motion": 1.00269776,
        "meta_eccentricity": 0.00038829,
        "meta_inclination": 0.0434,
        "meta_ra_of_asc_node": 351.7344,
        "meta_arg_of_pericenter": 266.9992,
        "meta_mean_anomaly": 130.0512,
        "meta_ephemeris_type": 0,
        "meta_classification_type": "U",
        "meta_norad_cat_id": 39617,
        "meta_element_set_no": 999,
        "meta_rev_at_epoch": 4284,
        "meta_bstar": 0,
        "meta_mean_motion_dot": 1.62e-06,
        "meta_mean_motion_ddot": 0,
        "tle_line1": "1 39617U 14011B   25351.77395704  .00000162  00000+0  00000+0 0  9998",
        "tle_line2": "2 39617   0.0434 351.7344 0003882 266.9992 130.0512  1.00269776 42848"
      },
      "geometry": {
        "type": "Point",
        "coordinates": [
          -143.89542197655376,
          -0.050558720663180776
        ]
      }
    },
    {
      "type": "Feature",
      "properties": {
        "norad_id": 39620,
        "name": "COSMOS 2492 (754)",
        "group": "gnss",
        "lat": 57.681461548960364,
        "lon": 6.436646105848284,
        "alt_km": 19138.935094104527,
        "timestamp": "2025-12-18T07:01:54.831173+00:00",
        "meta_object_name": "COSMOS 2492 (754)",
        "meta_object_id": "2014-012A",
        "meta_epoch": "2025-12-16T07:50:46.447872",
        "meta_mean_motion": 2.13103282,
        "meta_eccentricity": 0.00142536,
        "meta_inclination": 65.4058,
        "meta_ra_of_asc_node": 320.149,
        "meta_arg_of_pericenter": 313.159,
        "meta_mean_anomaly": 46.7158,
        "meta_ephemeris_type": 0,
        "meta_classification_type": "U",
        "meta_norad_cat_id": 39620,
        "meta_element_set_no": 999,
        "meta_rev_at_epoch": 9134,
        "meta_bstar": 0,
        "meta_mean_motion_dot": -6.8e-07,
        "meta_mean_motion_ddot": 0,
        "tle_line1": "1 39620U 14012A   25350.32692648 -.00000068  00000+0  00000+0 0  9996",
        "tle_line2": "2 39620  65.4058 320.1490 0014253 313.1590  46.7158  2.13103282 91346"
      },
      "geometry": {
        "type": "Point",
        "coordinates": [
          6.436646105848284,
          57.681461548960364
        ]
      }
    },
    {
      "type": "Feature",
      "properties": {
        "norad_id": 39635,
        "name": "IRNSS-1B",
        "group": "gnss",
        "lat": 2.2348528830952312,
        "lon": -112.44188623984614,
        "alt_km": 35822.38739839999,
        "timestamp": "2025-12-18T07:01:54.831184+00:00",
        "meta_object_name": "IRNSS-1B",
        "meta_object_id": "2014-017A",
        "meta_epoch": "2025-12-17T18:43:29.026848",
        "meta_mean_motion": 1.00270156,
        "meta_eccentricity": 0.00188771,
        "meta_inclination": 29.2563,
        "meta_ra_of_asc_node": 243.5188,
        "meta_arg_of_pericenter": 247.8275,
        "meta_mean_anomaly": 291.5675,
        "meta_ephemeris_type": 0,
        "meta_classification_type": "U",
        "meta_norad_cat_id": 39635,
        "meta_element_set_no": 999,
        "meta_rev_at_epoch": 4297,
        "meta_bstar": 0,
        "meta_mean_motion_dot": 1.47e-06,
        "meta_mean_motion_ddot": 0,
        "tle_line1": "1 39635U 14017A   25351.78019707  .00000147  00000+0  00000+0 0  9994",
        "tle_line2": "2 39635  29.2563 243.5188 0018877 247.8275 291.5675  1.00270156 42971"
      },
      "geometry": {
        "type": "Point",
        "coordinates": [
          -112.44188623984614,
          2.2348528830952312
        ]
      }
    },
    {
      "type": "Feature",
      "properties": {
        "norad_id": 39727,
        "name": "LUCH 5V (SDCM/PRN 141)",
        "group": "gnss",
        "lat": -2.7632512039390495,
        "lon": -72.77474735875343,
        "alt_km": 35769.41589588449,
        "timestamp": "2025-12-18T07:01:54.831196+00:00",
        "meta_object_name": "LUCH 5V (SDCM/PRN 141)",
        "meta_object_id": "2014-023A",
        "meta_epoch": "2025-12-17T21:28:21.526176",
        "meta_mean_motion": 1.00267801,
        "meta_eccentricity": 0.00043133,
        "meta_inclination": 4.6819,
        "meta_ra_of_asc_node": 71.4917,
        "meta_arg_of_pericenter": 211.0204,
        "meta_mean_anomaly": 221.0284,
        "meta_ephemeris_type": 0,
        "meta_classification_type": "U",
        "meta_norad_cat_id": 39727,
        "meta_element_set_no": 999,
        "meta_rev_at_epoch": 4254,
        "meta_bstar": 0,
        "meta_mean_motion_dot": -2.47e-06,
        "meta_mean_motion_ddot": 0,
        "tle_line1": "1 39727U 14023A   25351.89469359 -.00000247  00000+0  00000+0 0  9999",
        "tle_line2": "2 39727   4.6819  71.4917 0004313 211.0204 221.0284  1.00267801 42547"
      },
      "geometry": {
        "type": "Point",
        "coordinates": [
          -72.77474735875343,
          -2.7632512039390495
        ]
      }
    },
    {
      "type": "Feature",
      "properties": {
        "norad_id": 39741,
        "name": "GPS BIIF-6  (PRN 06)",
        "group": "gnss",
        "lat": -37.24361216478824,
        "lon": -171.31999830954052,
        "alt_km": 20190.89462538668,
        "timestamp": "2025-12-18T07:01:54.831208+00:00",
        "meta_object_name": "GPS BIIF-6  (PRN 06)",
        "meta_object_id": "2014-026A",
        "meta_epoch": "2025-12-17T11:30:51.107616",
        "meta_mean_motion": 2.00561119,
        "meta_eccentricity": 0.00393141,
        "meta_inclination": 56.5818,
        "meta_ra_of_asc_node": 338.592,
        "meta_arg_of_pericenter": 318.961,
        "meta_mean_anomaly": 40.7519,
        "meta_ephemeris_type": 0,
        "meta_classification_type": "U",
        "meta_norad_cat_id": 39741,
        "meta_element_set_no": 999,
        "meta_rev_at_epoch": 8489,
        "meta_bstar": 0,
        "meta_mean_motion_dot": -8.5e-07,
        "meta_mean_motion_ddot": 0,
        "tle_line1": "1 39741U 14026A   25351.47975819 -.00000085  00000+0  00000+0 0  9995",
        "tle_line2": "2 39741  56.5818 338.5920 0039314 318.9610  40.7519  2.00561119 84897"
      },
      "geometry": {
        "type": "Point",
        "coordinates": [
          -171.31999830954052,
          -37.24361216478824
        ]
      }
    },
    {
      "type": "Feature",
      "properties": {
        "norad_id": 40001,
        "name": "COSMOS 2500 (755)",
        "group": "gnss",
        "lat": -54.55478188540572,
        "lon": -80.35043801445649,
        "alt_km": 19131.079841055907,
        "timestamp": "2025-12-18T07:01:54.831219+00:00",
        "meta_object_name": "COSMOS 2500 (755)",
        "meta_object_id": "2014-032A",
        "meta_epoch": "2025-12-16T23:14:23.843328",
        "meta_mean_motion": 2.13106023,
        "meta_eccentricity": 0.00080797,
        "meta_inclination": 65.3407,
        "meta_ra_of_asc_node": 319.8884,
        "meta_arg_of_pericenter": 219.086,
        "meta_mean_anomaly": 140.8487,
        "meta_ephemeris_type": 0,
        "meta_classification_type": "U",
        "meta_norad_cat_id": 40001,
        "meta_element_set_no": 999,
        "meta_rev_at_epoch": 8957,
        "meta_bstar": 0,
        "meta_mean_motion_dot": -6.8e-07,
        "meta_mean_motion_ddot": 0,
        "tle_line1": "1 40001U 14032A   25350.96833152 -.00000068  00000+0  00000+0 0  9990",
        "tle_line2": "2 40001  65.3407 319.8884 0008079 219.0860 140.8487  2.13106023 89572"
      },
      "geometry": {
        "type": "Point",
        "coordinates": [
          -80.35043801445649,
          -54.55478188540572
        ]
      }
    },
    {
      "type": "Feature",
      "properties": {
        "norad_id": 40105,
        "name": "GPS BIIF-7  (PRN 09)",
        "group": "gnss",
        "lat": 12.3691297374446,
        "lon": -93.07696582363182,
        "alt_km": 20118.48588986688,
        "timestamp": "2025-12-18T07:01:54.831233+00:00",
        "meta_object_name": "GPS BIIF-7  (PRN 09)",
        "meta_object_id": "2014-045A",
        "meta_epoch": "2025-12-16T13:40:35.692320",
        "meta_mean_motion": 2.00572829,
        "meta_eccentricity": 0.00326078,
        "meta_inclination": 55.2314,
        "meta_ra_of_asc_node": 95.7461,
        "meta_arg_of_pericenter": 119.9914,
        "meta_mean_anomaly": 240.3146,
        "meta_ephemeris_type": 0,
        "meta_classification_type": "U",
        "meta_norad_cat_id": 40105,
        "meta_element_set_no": 999,
        "meta_rev_at_epoch": 8241,
        "meta_bstar": 0,
        "meta_mean_motion_dot": -4.2e-07,
        "meta_mean_motion_ddot": 0,
        "tle_line1": "1 40105U 14045A   25350.56985755 -.00000042  00000+0  00000+0 0  9994",
        "tle_line2": "2 40105  55.2314  95.7461 0032607 119.9914 240.3146  2.00572829 82416"
      },
      "geometry": {
        "type": "Point",
        "coordinates": [
          -93.07696582363182,
          12.3691297374446
        ]
      }
    }
  ]
}